OBJECT_NAME,OBJECT_ID,EPOCH,MEAN_MOTION,ECCENTRICITY,INCLINATION,RA_OF_ASC_NODE,ARG_OF_PERICENTER,MEAN_ANOMALY,EPHEMERIS_TYPE,CLASSIFICATION_TYPE,NORAD_CAT_ID,ELEMENT_SET_NO,REV_AT_EPOCH,BSTAR,MEAN_MOTION_DOT,MEAN_MOTION_DDOT
STARLINK-37032,2026-050Q,2026-07-15T20:24:01.830816,15.34376116,.0001537,53.1595,29.4359,81.9490,278.1687,0,U,68181,999,2033,.20348E-3,.6499E-4,0
STARLINK-37082,2026-050R,2026-07-16T05:49:49.141632,15.34397244,.0001151,53.1595,27.6225,90.6771,269.4363,0,U,68182,999,2039,.34977E-3,.11458E-3,0
STARLINK-37102,2026-050S,2026-07-16T16:16:05.556576,15.34399471,.0001294,53.1593,25.3642,95.6299,264.4851,0,U,68183,999,2046,.36343E-3,.11922E-3,0
STARLINK-36964,2026-050T,2026-07-16T05:40:43.631040,15.34391339,.0001269,53.1600,27.5809,98.9232,261.1914,0,U,68184,999,2039,.23503E-3,.7571E-4,0
STARLINK-37061,2026-050U,2026-07-16T12:35:10.376160,15.34395106,.0001193,53.1601,25.8167,99.6187,260.4950,0,U,68185,999,2044,.49613E-3,.16421E-3,0
STARLINK-37079,2026-050V,2026-07-16T12:50:19.278240,15.34399015,.0001389,53.1602,25.8993,107.5394,252.5760,0,U,68186,999,2044,.57171E-3,.18988E-3,0
STARLINK-37006,2026-050W,2026-07-16T12:20:08.486304,15.34413685,.0001209,53.1600,26.4612,75.9638,284.1499,0,U,68187,999,2043,.39989E-3,.13164E-3,0
STARLINK-36305,2026-050Y,2026-07-16T12:29:14.136000,15.34399460,.0001562,53.1602,26.5037,87.7009,272.4173,0,U,68189,999,2033,.35413E-3,.11607E-3,0
STARLINK-37071,2026-050Z,2026-07-16T20:15:11.282112,15.34399023,.0001182,53.1596,24.9614,82.6298,277.4839,0,U,68190,999,2048,.227E-3,.73E-4,0
STARLINK-37091,2026-050AA,2026-07-16T05:37:41.886048,15.34391958,.0001443,53.1587,27.5538,86.4075,273.7093,0,U,68191,999,2039,.33001E-3,.10787E-3,0
STARLINK-37098,2026-050AB,2026-07-16T16:22:09.033600,15.34396636,.0001407,53.1598,25.3760,103.0113,257.1047,0,U,68192,999,2046,.35047E-3,.11482E-3,0
STARLINK-37090,2026-050AC,2026-07-16T05:43:45.326784,15.34390264,.0001428,53.1587,27.5844,90.6296,269.4870,0,U,68193,999,2039,.22631E-3,.7275E-4,0
STARLINK-37093,2026-050AD,2026-07-15T21:42:39.477312,15.34392730,.0001097,53.1579,29.0523,86.8031,273.3097,0,U,68194,999,2034,.22736E-3,.7311E-4,0
STARLINK-37058,2026-050AE,2026-07-16T15:54:53.473824,15.34412450,.000078,53.1588,25.2548,77.0911,283.0178,0,U,68195,999,1890,.5043E-3,.16707E-3,0
STARLINK-36986,2026-053A,2026-07-16T15:04:04.007424,15.33455490,.0002885,97.2841,72.2647,83.6044,276.5528,0,U,68207,999,1997,.37146E-3,.11941E-3,0
STARLINK-37009,2026-053B,2026-07-16T15:00:07.799328,15.33469679,.0001624,97.2851,72.2693,90.9399,269.2029,0,U,68208,999,1997,.38063E-3,.12243E-3,0
STARLINK-36948,2026-053C,2026-07-16T14:56:14.100288,15.33447124,.0002301,97.2844,72.2725,72.5127,287.6367,0,U,68209,999,1995,.27091E-3,.8682E-4,0
STARLINK-37119,2026-053D,2026-07-16T14:52:19.258176,15.33384099,.0001809,97.2858,72.2752,95.3864,264.7585,0,U,68210,999,1997,-.90466E-3,-.29115E-3,0
STARLINK-37120,2026-053E,2026-07-16T14:48:24.161184,15.33450759,.0001779,97.2854,72.2792,80.1670,279.9773,0,U,68211,999,1995,.24044E-3,.7697E-4,0
STARLINK-37117,2026-053F,2026-07-16T14:44:29.743296,15.33443623,.0001791,97.2848,72.2839,87.6368,272.5080,0,U,68212,999,1997,.29942E-3,.9604E-4,0
STARLINK-37116,2026-053G,2026-07-16T14:40:34.334400,15.33456688,.0002326,97.2844,72.2885,89.4264,270.7245,0,U,68213,999,1997,.44495E-3,.14323E-3,0
STARLINK-35854,2026-053H,2026-07-16T15:31:28.352352,15.33453123,.0002556,97.2831,72.3842,84.7691,275.3843,0,U,68214,999,1996,.28834E-3,.9248E-4,0
STARLINK-36272,2026-053J,2026-07-16T14:32:44.461824,15.33444595,.0001884,97.2846,72.2898,96.9808,263.1649,0,U,68215,999,1995,.17842E-3,.5689E-4,0
STARLINK-37014,2026-053K,2026-07-16T14:28:49.564416,15.33445791,.0001645,97.2849,72.2983,91.4086,268.7345,0,U,68216,999,1997,.17502E-3,.5579E-4,0
STARLINK-37011,2026-053L,2026-07-16T20:40:46.707744,15.33449754,.0001989,97.2852,72.5587,100.6238,259.5229,0,U,68217,999,2001,.21398E-3,.684E-4,0
STARLINK-37108,2026-053M,2026-07-16T14:21:00.047808,15.33437104,.0001738,97.2849,72.3062,90.0114,270.1328,0,U,68218,999,1997,.14043E-3,.446E-4,0
STARLINK-37106,2026-053N,2026-07-16T15:51:02.493792,15.33445830,.0001633,97.2849,72.3739,97.0799,263.0630,0,U,68219,999,1998,.17494E-3,.5577E-4,0
STARLINK-37030,2026-053P,2026-07-16T15:43:12.934848,15.33451699,.0003103,97.2845,72.3781,109.1889,250.9689,0,U,68220,999,1998,.31478E-3,.10104E-3,0
STARLINK-37012,2026-053Q,2026-07-16T14:13:09.804576,15.33452558,.0002224,97.2845,72.3125,89.2566,270.8931,0,U,68221,999,1997,.33076E-3,.10621E-3,0
STARLINK-37110,2026-053R,2026-07-16T17:13:15.874176,15.33442456,.0002092,97.2849,72.4488,94.5444,265.6038,0,U,68222,999,1999,.20195E-3,.645E-4,0
