STARLINK-37032          
1 68181U 26050Q   26196.85002119  .00006499  00000+0  20348-3 0  9994
2 68181  53.1595  29.4359 0001537  81.9490 278.1687 15.34376116 20337
STARLINK-37082          
1 68182U 26050R   26197.24292988  .00011458  00000+0  34977-3 0  9998
2 68182  53.1595  27.6225 0001151  90.6771 269.4363 15.34397244 20396
STARLINK-37102          
1 68183U 26050S   26197.67784209  .00011922  00000+0  36343-3 0  9993
2 68183  53.1593  25.3642 0001294  95.6299 264.4851 15.34399471 20460
STARLINK-36964          
1 68184U 26050T   26197.23661610  .00007571  00000+0  23503-3 0  9995
2 68184  53.1600  27.5809 0001269  98.9232 261.1914 15.34391339 20395
STARLINK-37061          
1 68185U 26050U   26197.52442565  .00016421  00000+0  49613-3 0  9998
2 68185  53.1601  25.8167 0001193  99.6187 260.4950 15.34395106 20442
STARLINK-37079          
1 68186U 26050V   26197.53494535  .00018988  00000+0  57171-3 0  9992
2 68186  53.1602  25.8993 0001389 107.5394 252.5760 15.34399015 20441
STARLINK-37006          
1 68187U 26050W   26197.51398711  .00013164  00000+0  39989-3 0  9998
2 68187  53.1600  26.4612 0001209  75.9638 284.1499 15.34413685 20434
STARLINK-36305          
1 68189U 26050Y   26197.52030250  .00011607  00000+0  35413-3 0  9990
2 68189  53.1602  26.5037 0001562  87.7009 272.4173 15.34399460 20337
STARLINK-37071          
1 68190U 26050Z   26197.84388058  .00007300  00000+0  22700-3 0  9999
2 68190  53.1596  24.9614 0001182  82.6298 277.4839 15.34399023 20481
STARLINK-37091          
1 68191U 26050AA  26197.23451257  .00010787  00000+0  33001-3 0  9994
2 68191  53.1587  27.5538 0001443  86.4075 273.7093 15.34391958 20391
STARLINK-37098          
1 68192U 26050AB  26197.68204900  .00011482  00000+0  35047-3 0  9990
2 68192  53.1598  25.3760 0001407 103.0113 257.1047 15.34396636 20467
STARLINK-37090          
1 68193U 26050AC  26197.23871906  .00007275  00000+0  22631-3 0  9998
2 68193  53.1587  27.5844 0001428  90.6296 269.4870 15.34390264 20392
STARLINK-37093          
1 68194U 26050AD  26196.90462358  .00007311  00000+0  22736-3 0  9996
2 68194  53.1579  29.0523 0001097  86.8031 273.3097 15.34392730 20341
STARLINK-37058          
1 68195U 26050AE  26197.66311891  .00016707  00000+0  50430-3 0  9997
2 68195  53.1588  25.2548 0000780  77.0911 283.0178 15.34412450 18903
STARLINK-36986          
1 68207U 26053A   26197.62782416  .00011941  00000+0  37146-3 0  9999
2 68207  97.2841  72.2647 0002885  83.6044 276.5528 15.33455490 19972
STARLINK-37009          
1 68208U 26053B   26197.62509027  .00012243  00000+0  38063-3 0  9990
2 68208  97.2851  72.2693 0001624  90.9399 269.2029 15.33469679 19978
STARLINK-36948          
1 68209U 26053C   26197.62238542  .00008682  00000+0  27091-3 0  9993
2 68209  97.2844  72.2725 0002301  72.5127 287.6367 15.33447124 19953
STARLINK-37119          
1 68210U 26053D   26197.61966734 -.00029115  00000+0 -90466-3 0  9997
2 68210  97.2858  72.2752 0001809  95.3864 264.7585 15.33384099 19974
STARLINK-37120          
1 68211U 26053E   26197.61694631  .00007697  00000+0  24044-3 0  9990
2 68211  97.2854  72.2792 0001779  80.1670 279.9773 15.33450759 19950
STARLINK-37117          
1 68212U 26053F   26197.61423314  .00009604  00000+0  29942-3 0  9991
2 68212  97.2848  72.2839 0001791  87.6368 272.5080 15.33443623 19970
STARLINK-37116          
1 68213U 26053G   26197.61150850  .00014323  00000+0  44495-3 0  9998
2 68213  97.2844  72.2885 0002326  89.4264 270.7245 15.33456688 19976
STARLINK-35854          
1 68214U 26053H   26197.64685593  .00009248  00000+0  28834-3 0  9998
2 68214  97.2831  72.3842 0002556  84.7691 275.3843 15.33453123 19969
STARLINK-36272          
1 68215U 26053J   26197.60607016  .00005689  00000+0  17842-3 0  9991
2 68215  97.2846  72.2898 0001884  96.9808 263.1649 15.33444595 19955
STARLINK-37014          
1 68216U 26053K   26197.60335144  .00005579  00000+0  17502-3 0  9993
2 68216  97.2849  72.2983 0001645  91.4086 268.7345 15.33445791 19972
STARLINK-37011          
1 68217U 26053L   26197.86165171  .00006840  00000+0  21398-3 0  9993
2 68217  97.2852  72.5587 0001989 100.6238 259.5229 15.33449754 20012
STARLINK-37108          
1 68218U 26053M   26197.59791722  .00004460  00000+0  14043-3 0  9996
2 68218  97.2849  72.3062 0001738  90.0114 270.1328 15.33437104 19970
STARLINK-37106          
1 68219U 26053N   26197.66044553  .00005577  00000+0  17494-3 0  9991
2 68219  97.2849  72.3739 0001633  97.0799 263.0630 15.33445830 19985
STARLINK-37030          
1 68220U 26053P   26197.65501082  .00010104  00000+0  31478-3 0  9997
2 68220  97.2845  72.3781 0003103 109.1889 250.9689 15.33451699 19988
STARLINK-37012          
1 68221U 26053Q   26197.59247459  .00010621  00000+0  33076-3 0  9996
2 68221  97.2845  72.3125 0002224  89.2566 270.8931 15.33452558 19979
STARLINK-37110          
1 68222U 26053R   26197.71754484  .00006450  00000+0  20195-3 0  9995
2 68222  97.2849  72.4488 0002092  94.5444 265.6038 15.33442456 19992
